OBJECT_NAME,OBJECT_ID,EPOCH,MEAN_MOTION,ECCENTRICITY,INCLINATION,RA_OF_ASC_NODE,ARG_OF_PERICENTER,MEAN_ANOMALY,EPHEMERIS_TYPE,CLASSIFICATION_TYPE,NORAD_CAT_ID,ELEMENT_SET_NO,REV_AT_EPOCH,BSTAR,MEAN_MOTION_DOT,MEAN_MOTION_DDOT
STARLINK-31871,2024-084V,2026-06-13T20:52:42.121344,15.27569293,.00001306,42.9908,218.5322,62.4772,297.6092,0,U,59673,999,11908,-.3430998E-4,-.1205E-4,0
STARLINK-31875,2024-084W,2026-06-13T20:49:39.876096,15.27595621,.0002863,43.0113,215.0662,281.6009,78.4521,0,U,59674,999,11912,.86877453E-4,.213E-4,0
STARLINK-31877,2024-084X,2026-06-13T10:15:47.810016,15.27581814,.00032905,43.0125,221.2432,286.3727,73.6763,0,U,59675,999,11901,.32108988E-4,.621E-5,0
STARLINK-31884,2024-084Y,2026-06-13T14:41:37.383072,15.27576668,.00002415,42.9970,220.0622,175.3962,184.6892,0,U,59676,999,11904,.11979171E-4,.68E-6,0
STARLINK-32108,2024-086A,2026-06-13T21:31:13.750752,15.27578039,.00011098,43.0015,240.1761,278.0070,82.0656,0,U,59682,999,11877,.620617E-5,-.91E-6,0
STARLINK-32080,2024-086B,2026-06-13T22:02:42.313056,15.27573078,.00005079,42.9989,240.3434,92.2121,267.8789,0,U,59683,999,11879,.8442426E-5,-.29E-6,0
STARLINK-32091,2024-086C,2026-06-13T21:42:22.060800,15.27579294,.00012728,43.0047,229.0357,291.0618,69.0097,0,U,59684,999,11892,.13018539E-4,.96E-6,0
STARLINK-32085,2024-086D,2026-06-13T21:13:26.327136,15.27573527,.000115,43.0043,236.6594,282.6901,77.3822,0,U,59685,999,11882,.4936878E-5,-.126E-5,0
STARLINK-32100,2024-086E,2026-06-13T20:10:15.977280,15.27574521,.000153,42.9952,218.7826,270.6956,89.3720,0,U,59686,999,11902,.28388805E-4,.519E-5,0
STARLINK-32089,2024-086F,2026-06-13T11:26:17.390688,15.27583846,.00028665,43.0119,238.7733,282.1882,77.8649,0,U,59687,999,11876,.7901659E-4,.1912E-4,0
STARLINK-32103,2024-086G,2026-06-13T20:51:27.715392,15.27578369,.00010088,43.0002,226.1666,267.2772,92.7964,0,U,59688,999,11894,.28183763E-4,.514E-5,0
STARLINK-32105,2024-086H,2026-06-13T22:16:07.075488,15.27588498,.00027135,43.0078,236.1366,285.3456,74.7096,0,U,59689,999,11883,.14464586E-4,.135E-5,0
STARLINK-32106,2024-086J,2026-06-13T21:25:42.344544,15.27583475,.00023093,43.0228,228.9419,271.9319,88.1268,0,U,59690,999,11891,.2303387E-4,.371E-5,0
STARLINK-32090,2024-086K,2026-06-13T21:57:08.501472,15.27576529,.00011321,43.0032,240.3436,278.7540,81.3184,0,U,59691,999,11878,-.6144618E-5,-.431E-5,0
STARLINK-32088,2024-086M,2026-06-13T21:36:50.932800,15.27560596,.00004002,43.0003,229.0003,264.3349,95.7457,0,U,59693,999,11891,-.22537856E-3,-.6454E-4,0
STARLINK-32107,2024-086N,2026-06-13T21:39:24.113088,15.27532271,.00011739,43.0031,236.7952,286.5264,73.5458,0,U,59694,999,11882,-.21274282E-3,-.6103E-4,0
STARLINK-32104,2024-086P,2026-06-13T21:38:11.821344,15.27560905,.00013224,43.0013,233.2578,280.2659,79.8044,0,U,59695,999,11886,-.51177912E-4,-.1669E-4,0
STARLINK-32094,2024-086Q,2026-06-13T21:44:53.364480,15.27575696,.00010043,43.0007,236.8212,271.4360,88.6377,0,U,59696,999,11882,.497122E-6,-.248E-5,0
STARLINK-32099,2024-086R,2026-06-13T11:22:35.517216,15.27566961,.00017642,43.0024,238.7454,272.4229,87.6421,0,U,59697,999,11876,-.21779832E-3,-.6248E-4,0
STARLINK-32096,2024-086S,2026-06-13T11:42:56.348352,15.27582946,.00007896,43.0067,238.8481,251.7455,108.3310,0,U,59698,999,11876,.5568985E-5,-.109E-5,0
STARLINK-32102,2024-086T,2026-06-12T11:59:29.791968,15.27597602,.00024855,43.0027,244.3324,282.8234,77.2340,0,U,59699,999,11861,.66473471E-3,.18085E-3,0
STARLINK-32092,2024-086U,2026-06-13T21:22:41.136096,15.27574458,.0001152,43.0001,236.7065,269.1281,90.9438,0,U,59700,999,11882,-.1421671E-4,-.653E-5,0
STARLINK-32093,2024-086V,2026-06-13T21:18:58.779648,15.27576062,.00012529,42.9996,236.6859,278.9995,81.0715,0,U,59701,999,11882,-.17567854E-4,-.745E-5,0
STARLINK-32087,2024-086W,2026-06-13T11:37:23.152800,15.27585163,.0001291,43.0013,238.8170,244.7708,115.3010,0,U,59702,999,11876,.91614969E-4,.226E-4,0
STARLINK-32086,2024-086X,2026-06-13T22:10:34.609152,15.27579480,.00023403,43.0058,236.0954,256.0296,104.0296,0,U,59703,999,11883,.15327555E-4,.159E-5,0
STARLINK-32098,2024-086Y,2026-06-13T21:33:47.020032,15.27576943,.00014055,42.9980,236.7626,276.1066,83.9625,0,U,59704,999,11882,.17794117E-4,.228E-5,0
STARLINK-11107 [DTC],2024-088A,2026-06-13T10:19:04.071936,15.69702883,.00013685,53.1605,214.0017,84.9395,275.1779,0,U,59708,999,12129,.5106472E-5,.3E-6,0
STARLINK-11088 [DTC],2024-088B,2026-06-13T20:46:52.078656,15.69708128,.00009002,53.1563,212.4626,81.7852,278.3268,0,U,59709,999,12137,.27361363E-3,.32687E-3,0
STARLINK-11092 [DTC],2024-088C,2026-06-13T20:39:48.824928,15.69696781,.00009259,53.1586,212.4316,108.4107,251.7011,0,U,59710,999,12137,-.11687697E-4,-.2003E-4,0
STARLINK-11082 [DTC],2024-088D,2026-06-13T20:32:44.752128,15.69701110,.00011062,53.1583,212.3981,72.3649,287.7490,0,U,59711,999,12137,-.3218705E-5,-.978E-5,0
STARLINK-11108 [DTC],2024-088E,2026-06-13T14:18:56.870784,15.69700198,.0000873,53.1585,213.6214,118.0141,242.0965,0,U,59712,999,12133,-.50373E-5,-.1198E-4,0
STARLINK-11100 [DTC],2024-088F,2026-06-13T09:36:49.470912,15.69709864,.00012616,53.1595,214.5306,74.9949,285.1208,0,U,59713,999,12130,.2649847E-5,-.268E-5,0
STARLINK-11094 [DTC],2024-088G,2026-06-13T20:11:32.921664,15.69698728,.00011337,53.1572,212.3086,125.6214,234.4909,0,U,59714,999,12137,-.29796537E-4,-.4195E-4,0
STARLINK-11101 [DTC],2024-088H,2026-06-13T19:57:25.072416,15.69707930,.00007155,53.1581,212.2335,119.0491,241.0599,0,U,59715,999,12137,.345332E-6,-.546E-5,0
STARLINK-11099 [DTC],2024-088J,2026-06-13T20:04:29.196192,15.69703273,.00013642,53.1583,212.2651,145.0757,215.0351,0,U,59716,999,12137,-.113995E-6,-.603E-5,0
STARLINK-11084 [DTC],2024-088K,2026-06-13T10:40:16.203936,15.69684872,.00012842,53.1592,214.0787,91.2300,268.8865,0,U,59717,999,12131,-.12847355E-4,-.2143E-4,0
STARLINK-11103 [DTC],2024-088L,2026-06-13T09:01:30.268992,15.69701931,.00007131,53.1587,214.3619,109.4584,250.6511,0,U,59718,999,12130,-.3609854E-5,-.1025E-4,0
STARLINK-11096 [DTC],2024-088M,2026-06-13T10:12:09.692352,15.69691082,.00008924,53.1582,214.6867,103.7249,256.3868,0,U,59719,999,12130,-.16502168E-4,-.2585E-4,0
STARLINK-11095 [DTC],2024-088N,2026-06-13T10:26:07.445760,15.69711058,.00009855,53.1598,214.0175,85.5522,274.5608,0,U,59720,999,12131,.4969462E-5,.14E-6,0
STARLINK-31834,2024-088P,2026-06-13T23:27:20.000448,15.31701715,.0001205,53.1627,52.7104,104.1172,255.9963,0,U,59721,999,11860,-.542775E-6,-.382E-5,0
STARLINK-31843,2024-088Q,2026-06-13T20:26:11.582016,15.31826009,.00011678,53.1611,53.3446,81.6994,278.4140,0,U,59722,999,11840,.19147441E-2,.59764E-3,0
STARLINK-31766,2024-088R,2026-06-13T23:31:26.454720,15.30183843,.00005331,53.1597,52.7241,124.9574,235.1477,0,U,59723,999,11842,-.7999324E-5,-.595E-5,0
STARLINK-31836,2024-088S,2026-06-13T22:26:51.564192,15.31686418,.00016229,53.1605,52.4514,80.7642,279.3543,0,U,59724,999,11842,-.24450699E-4,-.1124E-4,0
STARLINK-31820,2024-088T,2026-06-13T22:40:17.621760,15.31688837,.00013387,53.1614,52.5029,112.6931,247.4212,0,U,59725,999,11842,-.48023743E-4,-.1854E-4,0
STARLINK-31642,2024-088U,2026-06-13T22:47:00.693312,15.31691644,.00014587,53.1606,52.5325,107.5064,252.6097,0,U,59726,999,11842,-.53065755E-4,-.2011E-4,0
STARLINK-31827,2024-088V,2026-06-13T23:20:36.138336,15.31738290,.00009551,53.1594,52.6772,93.0742,267.0369,0,U,59727,999,11854,.73422616E-3,.22515E-3,0
STARLINK-31472,2024-090A,2026-06-13T19:54:00.024480,15.27574474,.00009092,43.0089,0.5326,261.1724,98.9025,0,U,59730,999,11814,-.23819018E-4,-.917E-5,0
STARLINK-31817,2024-090B,2026-06-13T19:28:05.514816,15.27577975,.00015687,43.0031,0.3990,270.3489,89.7183,0,U,59731,999,11814,.20259269E-4,.295E-5,0
STARLINK-31833,2024-090D,2026-06-13T20:14:21.596064,15.27567533,.0001383,43.0012,0.6386,271.6520,88.4174,0,U,59733,999,11814,.26407101E-4,.464E-5,0
STARLINK-31849,2024-090E,2026-06-13T19:59:04.891200,15.27583256,.00016634,42.9957,353.6406,66.4155,293.6872,0,U,59734,999,11822,.29219191E-4,.542E-5,0
STARLINK-31661,2024-090F,2026-06-13T19:42:26.200512,15.27575411,.00015208,43.0021,353.5520,274.5198,85.5480,0,U,59735,999,11822,-.7520315E-5,-.469E-5,0
STARLINK-31707,2024-090G,2026-06-13T19:48:26.625024,15.27576247,.00023207,42.9978,0.5032,285.5177,74.5418,0,U,59736,999,11814,.8934784E-5,-.17E-6,0
STARLINK-31821,2024-090H,2026-06-13T20:05:06.128736,15.27570250,.0001224,43.0069,0.5926,284.2074,75.8642,0,U,59737,999,11814,-.26511213E-4,-.991E-5,0
STARLINK-31819,2024-090J,2026-06-12T20:25:20.627616,15.27578231,.00009828,43.0083,6.0877,268.6327,91.4412,0,U,59738,999,11799,.45468462E-4,.989E-5,0
STARLINK-31726,2024-090K,2026-06-13T19:22:32.340000,15.27578157,.00016792,43.0065,0.3712,275.0506,85.0154,0,U,59739,999,11814,.7106164E-5,-.67E-6,0
STARLINK-31759,2024-090L,2026-06-11T07:18:53.384256,15.27591424,.0002067,43.0095,15.1233,268.5180,91.5435,0,U,59740,999,11775,.81726E-4,.1988E-4,0
STARLINK-31818,2024-090M,2026-06-13T20:19:55.978752,15.27552886,.00020096,42.9986,0.6635,263.6815,96.3807,0,U,59741,999,11814,-.10889929E-3,-.3255E-4,0
STARLINK-31816,2024-090N,2026-06-13T06:32:50.671680,15.27578992,.0000941,43.0088,4.0743,265.3879,94.6865,0,U,59742,999,11803,.33335E-4,.655E-5,0
STARLINK-31809,2024-090P,2026-06-13T19:47:59.156736,15.27574512,.00007779,43.0027,353.5751,281.2500,78.8265,0,U,59743,999,11822,.8245009E-5,-.35E-6,0
STARLINK-31779,2024-090Q,2026-06-12T20:01:17.937696,15.27579200,.00037372,43.0227,5.9775,288.9885,71.0562,0,U,59744,999,11799,.27967488E-4,.506E-5,0
STARLINK-31805,2024-090R,2026-06-13T06:43:44.356800,15.27577688,.000127,43.0030,3.2976,292.8747,67.1970,0,U,59745,999,11806,.27947E-4,.507E-5,0
STARLINK-31681,2024-090S,2026-06-13T19:53:32.836992,15.27571964,.00011508,43.0032,353.6090,267.0805,92.9915,0,U,59746,999,11822,-.12679765E-4,-.611E-5,0
STARLINK-31636,2024-090T,2026-06-13T19:37:20.461152,15.27579517,.00019533,43.0122,0.4497,281.8369,78.2264,0,U,59747,999,11814,-.973062E-5,-.53E-5,0
